[Satellite]
VERSION=1.1
NAME=STARLINK-4468
NICKNAME=STARLINK-4468
TLE1=1 53969U 22125F   22297.16668981 -.01206294  00000+0 -14136-1 0  9992
TLE2=2 53969  53.2174   1.6507 0001413  51.0192 134.3507 15.63660780  3257
STATUS=0
